MALLIGYONG-1            
1 58400U 23179A   23332.58809824  .00008945  00000+0  40245-3 0  9999
2 58400  97.4270 217.2750 0014216 253.1373 106.8304 15.21242848  1066
